CCSDS_OMM_VERS = 2.0
CREATION_DATE  = 
ORIGINATOR     = 

OBJECT_NAME    = PROGRESS-MS 32
OBJECT_ID      = 2025-204A
CENTER_NAME    = EARTH
REF_FRAME      = TEME
TIME_SYSTEM    = UTC
MEAN_ELEMENT_THEORY = SGP/SGP4

EPOCH          = 2025-11-26T22:21:35.365248
MEAN_MOTION    = 15.49107800
ECCENTRICITY   = .00038121
INCLINATION    = 51.6311
RA_OF_ASC_NODE = 220.7305
ARG_OF_PERICENTER = 172.0243
MEAN_ANOMALY   = 188.0807

EPHEMERIS_TYPE = 0
CLASSIFICATION_TYPE = U
NORAD_CAT_ID   = 65586
ELEMENT_SET_NO = 999
REV_AT_EPOCH   = 27
BSTAR          = .19921871E-3
MEAN_MOTION_DOT = .10582E-3
MEAN_MOTION_DDOT = 0

CCSDS_OMM_VERS = 2.0
CREATION_DATE  = 
ORIGINATOR     = 

OBJECT_NAME    = CYGNUS NG-23
OBJECT_ID      = 2025-208A
CENTER_NAME    = EARTH
REF_FRAME      = TEME
TIME_SYSTEM    = UTC
MEAN_ELEMENT_THEORY = SGP/SGP4

EPOCH          = 2025-11-26T22:21:35.365248
MEAN_MOTION    = 15.49107800
ECCENTRICITY   = .00038121
INCLINATION    = 51.6311
RA_OF_ASC_NODE = 220.7305
ARG_OF_PERICENTER = 172.0243
MEAN_ANOMALY   = 188.0807

EPHEMERIS_TYPE = 0
CLASSIFICATION_TYPE = U
NORAD_CAT_ID   = 65616
ELEMENT_SET_NO = 999
REV_AT_EPOCH   = 22
BSTAR          = .19921871E-3
MEAN_MOTION_DOT = .10582E-3
MEAN_MOTION_DDOT = 0

CCSDS_OMM_VERS = 2.0
CREATION_DATE  = 
ORIGINATOR     = 

OBJECT_NAME    = DRAGONFLY
OBJECT_ID      = 1998-067XH
CENTER_NAME    = EARTH
REF_FRAME      = TEME
TIME_SYSTEM    = UTC
MEAN_ELEMENT_THEORY = SGP/SGP4

EPOCH          = 2025-11-26T16:29:11.725728
MEAN_MOTION    = 15.66389378
ECCENTRICITY   = .00062266
INCLINATION    = 51.6260
RA_OF_ASC_NODE = 217.5966
ARG_OF_PERICENTER = 186.0344
MEAN_ANOMALY   = 174.0577

EPHEMERIS_TYPE = 0
CLASSIFICATION_TYPE = U
NORAD_CAT_ID   = 65729
ELEMENT_SET_NO = 999
REV_AT_EPOCH   = 1064
BSTAR          = .12762618E-2
MEAN_MOTION_DOT = .137012E-2
MEAN_MOTION_DDOT = 0

CCSDS_OMM_VERS = 2.0
CREATION_DATE  = 
ORIGINATOR     = 

OBJECT_NAME    = 1998-067XJ
OBJECT_ID      = 1998-067XJ
CENTER_NAME    = EARTH
REF_FRAME      = TEME
TIME_SYSTEM    = UTC
MEAN_ELEMENT_THEORY = SGP/SGP4

EPOCH          = 2025-11-26T20:21:22.181760
MEAN_MOTION    = 15.95455520
ECCENTRICITY   = .00121246
INCLINATION    = 51.6169
RA_OF_ASC_NODE = 212.6170
ARG_OF_PERICENTER = 195.3108
MEAN_ANOMALY   = 164.7535

EPHEMERIS_TYPE = 0
CLASSIFICATION_TYPE = U
NORAD_CAT_ID   = 65730
ELEMENT_SET_NO = 999
REV_AT_EPOCH   = 1072
BSTAR          = .27962635E-2
MEAN_MOTION_DOT = .114008E-1
MEAN_MOTION_DDOT = .62185403E-3

CCSDS_OMM_VERS = 2.0
CREATION_DATE  = 
ORIGINATOR     = 

OBJECT_NAME    = 1998-067XK
OBJECT_ID      = 1998-067XK
CENTER_NAME    = EARTH
REF_FRAME      = TEME
TIME_SYSTEM    = UTC
MEAN_ELEMENT_THEORY = SGP/SGP4

EPOCH          = 2025-11-26T16:41:03.975360
MEAN_MOTION    = 15.62309161
ECCENTRICITY   = .00059775
INCLINATION    = 51.6288
RA_OF_ASC_NODE = 218.4094
ARG_OF_PERICENTER = 160.1822
MEAN_ANOMALY   = 199.9405

EPHEMERIS_TYPE = 0
CLASSIFICATION_TYPE = U
NORAD_CAT_ID   = 65731
ELEMENT_SET_NO = 999
REV_AT_EPOCH   = 1063
BSTAR          = .98664809E-3
MEAN_MOTION_DOT = .89423E-3
MEAN_MOTION_DDOT = 0

CCSDS_OMM_VERS = 2.0
CREATION_DATE  = 
ORIGINATOR     = 

OBJECT_NAME    = RSP-03
OBJECT_ID      = 1998-067XL
CENTER_NAME    = EARTH
REF_FRAME      = TEME
TIME_SYSTEM    = UTC
MEAN_ELEMENT_THEORY = SGP/SGP4

EPOCH          = 2025-11-26T20:26:53.796192
MEAN_MOTION    = 15.64275681
ECCENTRICITY   = .00068703
INCLINATION    = 51.6278
RA_OF_ASC_NODE = 217.2008
ARG_OF_PERICENTER = 162.8566
MEAN_ANOMALY   = 197.2662

EPHEMERIS_TYPE = 0
CLASSIFICATION_TYPE = U
NORAD_CAT_ID   = 65732
ELEMENT_SET_NO = 999
REV_AT_EPOCH   = 1067
BSTAR          = .10513994E-2
MEAN_MOTION_DOT = .103208E-2
MEAN_MOTION_DDOT = 0

CCSDS_OMM_VERS = 2.0
CREATION_DATE  = 
ORIGINATOR     = 

OBJECT_NAME    = GHS-01
OBJECT_ID      = 1998-067XM
CENTER_NAME    = EARTH
REF_FRAME      = TEME
TIME_SYSTEM    = UTC
MEAN_ELEMENT_THEORY = SGP/SGP4

EPOCH          = 2025-11-26T21:58:41.012544
MEAN_MOTION    = 15.68109550
ECCENTRICITY   = .00068089
INCLINATION    = 51.6284
RA_OF_ASC_NODE = 216.1284
ARG_OF_PERICENTER = 184.8701
MEAN_ANOMALY   = 175.2231

EPHEMERIS_TYPE = 0
CLASSIFICATION_TYPE = U
NORAD_CAT_ID   = 65733
ELEMENT_SET_NO = 999
REV_AT_EPOCH   = 1069
BSTAR          = .13617925E-2
MEAN_MOTION_DOT = .157246E-2
MEAN_MOTION_DDOT = 0

CCSDS_OMM_VERS = 2.0
CREATION_DATE  = 
ORIGINATOR     = 

OBJECT_NAME    = YOTSUBA-KULOVER
OBJECT_ID      = 1998-067XN
CENTER_NAME    = EARTH
REF_FRAME      = TEME
TIME_SYSTEM    = UTC
MEAN_ELEMENT_THEORY = SGP/SGP4

EPOCH          = 2025-11-26T16:16:33.343680
MEAN_MOTION    = 15.56918395
ECCENTRICITY   = .0002333
INCLINATION    = 51.6299
RA_OF_ASC_NODE = 220.5414
ARG_OF_PERICENTER = 132.5292
MEAN_ANOMALY   = 227.5897

EPHEMERIS_TYPE = 0
CLASSIFICATION_TYPE = U
NORAD_CAT_ID   = 65941
ELEMENT_SET_NO = 999
REV_AT_EPOCH   = 735
BSTAR          = .91329389E-3
MEAN_MOTION_DOT = .67083E-3
MEAN_MOTION_DDOT = 0

CCSDS_OMM_VERS = 2.0
CREATION_DATE  = 
ORIGINATOR     = 

OBJECT_NAME    = BOTAN
OBJECT_ID      = 1998-067XP
CENTER_NAME    = EARTH
REF_FRAME      = TEME
TIME_SYSTEM    = UTC
MEAN_ELEMENT_THEORY = SGP/SGP4

EPOCH          = 2025-11-26T17:05:27.071232
MEAN_MOTION    = 15.59139435
ECCENTRICITY   = .00046337
INCLINATION    = 51.6290
RA_OF_ASC_NODE = 220.0192
ARG_OF_PERICENTER = 140.0582
MEAN_ANOMALY   = 220.0753

EPHEMERIS_TYPE = 0
CLASSIFICATION_TYPE = U
NORAD_CAT_ID   = 65942
ELEMENT_SET_NO = 999
REV_AT_EPOCH   = 736
BSTAR          = .12095066E-2
MEAN_MOTION_DOT = .97179E-3
MEAN_MOTION_DDOT = 0

CCSDS_OMM_VERS = 2.0
CREATION_DATE  = 
ORIGINATOR     = 

OBJECT_NAME    = E-KAGAKU-1
OBJECT_ID      = 1998-067XQ
CENTER_NAME    = EARTH
REF_FRAME      = TEME
TIME_SYSTEM    = UTC
MEAN_ELEMENT_THEORY = SGP/SGP4

EPOCH          = 2025-11-26T02:24:16.330464
MEAN_MOTION    = 15.56818438
ECCENTRICITY   = .00039139
INCLINATION    = 51.6305
RA_OF_ASC_NODE = 223.4334
ARG_OF_PERICENTER = 118.0377
MEAN_ANOMALY   = 242.1011

EPHEMERIS_TYPE = 0
CLASSIFICATION_TYPE = U
NORAD_CAT_ID   = 65943
ELEMENT_SET_NO = 999
REV_AT_EPOCH   = 726
BSTAR          = .89891055E-3
MEAN_MOTION_DOT = .65773E-3
MEAN_MOTION_DDOT = 0

CCSDS_OMM_VERS = 2.0
CREATION_DATE  = 
ORIGINATOR     = 

OBJECT_NAME    = HRC MONOBLOCK CAMERA
OBJECT_ID      = 1998-067XR
CENTER_NAME    = EARTH
REF_FRAME      = TEME
TIME_SYSTEM    = UTC
MEAN_ELEMENT_THEORY = SGP/SGP4

EPOCH          = 2025-11-26T10:32:14.875584
MEAN_MOTION    = 15.52696422
ECCENTRICITY   = .00046615
INCLINATION    = 51.6297
RA_OF_ASC_NODE = 222.6917
ARG_OF_PERICENTER = 119.7011
MEAN_ANOMALY   = 240.4444

EPHEMERIS_TYPE = 0
CLASSIFICATION_TYPE = U
NORAD_CAT_ID   = 66052
ELEMENT_SET_NO = 999
REV_AT_EPOCH   = 630
BSTAR          = .56311043E-3
MEAN_MOTION_DOT = .35084E-3
MEAN_MOTION_DDOT = 0

CCSDS_OMM_VERS = 2.0
CREATION_DATE  = 
ORIGINATOR     = 

OBJECT_NAME    = HTV-X1
OBJECT_ID      = 2025-241A
CENTER_NAME    = EARTH
REF_FRAME      = TEME
TIME_SYSTEM    = UTC
MEAN_ELEMENT_THEORY = SGP/SGP4

EPOCH          = 2025-11-26T22:21:35.365248
MEAN_MOTION    = 15.49107800
ECCENTRICITY   = .00038121
INCLINATION    = 51.6311
RA_OF_ASC_NODE = 220.7305
ARG_OF_PERICENTER = 172.0243
MEAN_ANOMALY   = 188.0807

EPHEMERIS_TYPE = 0
CLASSIFICATION_TYPE = U
NORAD_CAT_ID   = 66174
ELEMENT_SET_NO = 999
REV_AT_EPOCH   = 51
BSTAR          = .19921871E-3
MEAN_MOTION_DOT = .10582E-3
MEAN_MOTION_DDOT = 0

